     2.10           G: GLONASS NAV DATA                     RINEX VERSION / TYPE
teqc  2015Jun23                         20211010 01:25:47UTCPGM / RUN BY / DATE
Linux 2.4.21-27.ELsmp|Opteron|gcc -static|Linux x86_64|=+   COMMENT
  2021     9    16   -1.396983861923D-09                    CORR TO SYSTEM TIME
                                                            END OF HEADER
 5 21  9 17  2 15  0.0 7.907859981060D-05 9.094947017729D-13 7.200000000000D+03
    6.174447753906D+03-4.629964828491D-01-9.313225746155D-10 0.000000000000D+00
    1.509225781250D+04 2.649324417114D+00-0.000000000000D+00 1.000000000000D+00
   -1.961952050781D+04 1.889314651489D+00 2.793967723846D-09 0.000000000000D+00
16 21  9 17  2 15  0.0-2.156104892492D-05 0.000000000000D+00 7.200000000000D+03
    1.992573779297D+04 2.083244323730D-01-1.862645149231D-09 0.000000000000D+00
    1.599569726562D+04-5.233764648438D-03 0.000000000000D+00-1.000000000000D+00
    1.130711425781D+03-3.539703369141D+00 9.313225746155D-10 0.000000000000D+00
17 21  9 17  2 15  0.0 4.591401666403D-04 2.728484105319D-12 7.200000000000D+03
   -1.964813671875D+04-1.399542808533D+00-0.000000000000D+00 0.000000000000D+00
    1.175518359375D+04 6.622800827026D-01 3.725290298462D-09 4.000000000000D+00
    1.119783935547D+04-3.156777381897D+00 0.000000000000D+00 0.000000000000D+00
18 21  9 17  2 15  0.0 9.067356586456D-05 9.094947017729D-13 7.770000000000D+03
   -4.742594238281D+03-2.855734825134D+00-9.313225746155D-10 0.000000000000D+00
    1.190482763672D+04 9.951152801514D-01 3.725290298462D-09-3.000000000000D+00
    2.207510205078D+04-1.147023200989D+00-0.000000000000D+00 0.000000000000D+00
15 21  9 17  2 45  0.0 1.014256849885D-04-9.094947017729D-13 9.000000000000D+03
    4.752929687500D+03-2.252821922302D+00-9.313225746155D-10 0.000000000000D+00
    1.485464501953D+04-1.606828689575D+00 0.000000000000D+00 0.000000000000D+00
   -2.015635791016D+04-1.713283538818D+00 2.793967723846D-09 0.000000000000D+00
 4 21  9 17  2 45  0.0 1.051314175129D-04 1.818989403546D-12 9.000000000000D+03
   -2.231274902344D+03 1.903629302979D-01-9.313225746155D-10 0.000000000000D+00
    2.540897021484D+04-6.945705413818D-02 3.725290298462D-09 6.000000000000D+00
    6.332456054688D+02 3.577951431274D+00 1.862645149231D-09 0.000000000000D+00
16 21  9 17  2 45  0.0-2.156011760235D-05 0.000000000000D+00 9.000000000000D+03
    1.965899511719D+04-5.246200561523D-01-1.862645149231D-09 0.000000000000D+00
    1.551541259766D+04-4.935474395752D-01 0.000000000000D+00-1.000000000000D+00
   -5.202458007812D+03-3.451827049255D+00 1.862645149231D-09 0.000000000000D+00
 3 21  9 17  2 45  0.0 4.309974610806D-05 9.094947017729D-13 9.000000000000D+03
   -9.078613769531D+03 2.825965881348D-01-0.000000000000D+00 0.000000000000D+00
    1.737072460938D+04-2.220101356506D+00 4.656612873077D-09 5.000000000000D+00
    1.639534521484D+04 2.509151458740D+00 0.000000000000D+00 0.000000000000D+00
 5 21  9 17  2 45  0.0 7.908046245575D-05 9.094947017729D-13 9.000000000000D+03
    5.750519531250D+03-2.851676940918D-02-9.313225746155D-10 0.000000000000D+00
    1.943099365234D+04 2.128100395203D+00 9.313225746155D-10 1.000000000000D+00
   -1.550464453125D+04 2.653056144714D+00 2.793967723846D-09 0.000000000000D+00
17 21  9 17  2 45  0.0 4.591448232532D-04 1.818989403546D-12 9.000000000000D+03
   -2.139951269531D+04-5.435276031494D-01 0.000000000000D+00 0.000000000000D+00
    1.284198339844D+04 5.015258789062D-01 3.725290298462D-09 4.000000000000D+00
    5.155206054688D+03-3.513572692871D+00 9.313225746155D-10 0.000000000000D+00
18 21  9 17  2 45  0.0 9.067635983229D-05 9.094947017729D-13 9.000000000000D+03
   -9.431098632812D+03-2.316431999207D+00-0.000000000000D+00 0.000000000000D+00
    1.395379345703D+04 1.246397972107D+00 3.725290298462D-09-3.000000000000D+00
    1.918564550781D+04-2.042625427246D+00-0.000000000000D+00 0.000000000000D+00
15 21  9 17  3 15  0.0 1.014247536659D-04-9.094947017729D-13 1.080000000000D+04
    2.291445312500D+02-2.739076614380D+00-0.000000000000D+00 0.000000000000D+00
    1.211419531250D+04-1.401333808899D+00-0.000000000000D+00 0.000000000000D+00
   -2.241910839844D+04-7.844886779785D-01 2.793967723846D-09 0.000000000000D+00
 4 21  9 17  3 15  0.0 1.051342114806D-04 1.818989403546D-12 1.080000000000D+04
   -1.911960449219D+03 1.235866546631D-01-9.313225746155D-10 0.000000000000D+00
    2.447594091797D+04-9.589595794678D-01 4.656612873077D-09 6.000000000000D+00
    6.965965820312D+03 3.412772178650D+00 9.313225746155D-10 0.000000000000D+00
16 21  9 17  3 15  0.0-2.156011760235D-05 0.000000000000D+00 1.080000000000D+04
    1.799668798828D+04-1.324440956116D+00-1.862645149231D-09 0.000000000000D+00
    1.435891845703D+04-7.499446868896D-01 0.000000000000D+00-1.000000000000D+00
   -1.113658789062D+04-3.099155426025D+00 1.862645149231D-09 0.000000000000D+00
 3 21  9 17  3 15  0.0 4.310254007578D-05 9.094947017729D-13 1.080000000000D+04
   -8.872225585938D+03-7.803440093994D-02 0.000000000000D+00 0.000000000000D+00
    1.285350439453D+04-2.757988929749D+00 3.725290298462D-09 5.000000000000D+00
    2.022331396484D+04 1.716671943665D+00-0.000000000000D+00 0.000000000000D+00
 5 21  9 17  3 15  0.0 7.908139377832D-05 9.094947017729D-13 1.080000000000D+04
    5.972117675781D+03 2.409038543701D-01-9.313225746155D-10 0.000000000000D+00
    2.261980908203D+04 1.385345458984D+00 2.793967723846D-09 1.000000000000D+00
   -1.019194140625D+04 3.211627006531D+00 2.793967723846D-09 0.000000000000D+00
17 21  9 17  3 15  0.0 4.591494798660D-04 1.818989403546D-12 1.080000000000D+04
   -2.163034326172D+04 2.703104019165D-01 9.313225746155D-10 0.000000000000D+00
    1.340903320312D+04 8.958339691162D-02 2.793967723846D-09 4.000000000000D+00
   -1.287166992188D+03-3.597994804382D+00 9.313225746155D-10 0.000000000000D+00
18 21  9 17  3 15  0.0 9.067915380001D-05 9.094947017729D-13 1.080000000000D+04
   -1.297659033203D+04-1.602686882019D+00 0.000000000000D+00 0.000000000000D+00
    1.624669970703D+04 1.257124900818D+00 3.725290298462D-09-3.000000000000D+00
    1.481656054688D+04-2.780451774597D+00 0.000000000000D+00 0.000000000000D+00
15 21  9 17  3 45  0.0 1.014238223433D-04-9.094947017729D-13 1.260000000000D+04
   -4.960136718750D+03-2.980546951294D+00 0.000000000000D+00 0.000000000000D+00
    9.919192871094D+03-1.014577865601D+00-0.000000000000D+00 0.000000000000D+00
   -2.294388525391D+04 2.051992416382D-01 2.793967723846D-09 0.000000000000D+00
 4 21  9 17  3 45  0.0 1.051379367709D-04 1.818989403546D-12 1.260000000000D+04
   -1.924225585938D+03-1.715230941772D-01 0.000000000000D+00 0.000000000000D+00
    2.202092675781D+04-1.742012023926D+00 4.656612873077D-09 6.000000000000D+00
    1.276078906250D+04 2.984213829041D+00 0.000000000000D+00 0.000000000000D+00
16 21  9 17  3 45  0.0-2.155918627977D-05 0.000000000000D+00 1.260000000000D+04
    1.491767431641D+04-2.079934120178D+00-9.313225746155D-10 0.000000000000D+00
    1.296647216797D+04-7.563962936401D-01 0.000000000000D+00-1.000000000000D+00
   -1.621618750000D+04-2.508371353149D+00 2.793967723846D-09 0.000000000000D+00
 5 21  9 17  3 45  0.0 7.908325642347D-05 9.094947017729D-13 1.260000000000D+04
    6.480663574219D+03 2.832269668579D-01-0.000000000000D+00 0.000000000000D+00
    2.434300439453D+04 5.178260803223D-01 3.725290298462D-09 1.000000000000D+00
   -4.092066894531D+03 3.522044181824D+00 1.862645149231D-09 0.000000000000D+00
17 21  9 17  3 45  0.0 4.591550678015D-04 1.818989403546D-12 1.260000000000D+04
   -2.051790478516D+04 9.325695037842D-01 9.313225746155D-10 0.000000000000D+00
    1.304348242188D+04-5.227518081665D-01 1.862645149231D-09 4.000000000000D+00
   -7.629684082031D+03-3.403337478638D+00 9.313225746155D-10 0.000000000000D+00
18 21  9 17  3 45  0.0 9.068287909031D-05 9.094947017729D-13 1.260000000000D+04
   -1.516248876953D+04-8.253431320190D-01 9.313225746155D-10 0.000000000000D+00
    1.831485937500D+04 9.951267242432D-01 3.725290298462D-09-3.000000000000D+00
    9.305024902344D+03-3.303823471069D+00 0.000000000000D+00 0.000000000000D+00
 3 21  9 17  3 45  0.0 4.310440272093D-05 9.094947017729D-13 1.263000000000D+04
   -9.420520507812D+03-5.396499633789D-01 9.313225746155D-10 0.000000000000D+00
    7.607508300781D+03-3.021372795105D+00 2.793967723846D-09 5.000000000000D+00
    2.249581054688D+04 7.919416427612D-01-9.313225746155D-10 0.000000000000D+00
19 21  9 17  3 45  0.0-1.596715301275D-04-9.094947017729D-13 1.329000000000D+04
   -2.933466308594D+03-2.166957855225D+00 0.000000000000D+00 0.000000000000D+00
    1.427417187500D+04 1.888692855835D+00 3.725290298462D-09 3.000000000000D+00
    2.092847265625D+04-1.592910766602D+00-0.000000000000D+00 0.000000000000D+00
15 21  9 17  4 15  0.0 1.014228910208D-04-9.094947017729D-13 1.440000000000D+04
   -1.032302343750D+04-2.927205085754D+00 0.000000000000D+00 0.000000000000D+00
    8.513919433594D+03-5.412416458130D-01-9.313225746155D-10 0.000000000000D+00
   -2.169001171875D+04 1.178895950317D+00 1.862645149231D-09 0.000000000000D+00
 4 21  9 17  4 15  0.0 1.051416620612D-04 1.818989403546D-12 1.440000000000D+04
   -2.631626464844D+03-6.358413696289D-01 9.313225746155D-10 0.000000000000D+00
    1.832902392578D+04-2.318957328796D+00 3.725290298462D-09 6.000000000000D+00
    1.757074707031D+04 2.325599670410D+00 0.000000000000D+00 0.000000000000D+00
17 21  9 17  4 15  0.0 4.591597244143D-04 1.818989403546D-12 1.440000000000D+04
   -1.841396533203D+04 1.361423492432D+00 9.313225746155D-10 0.000000000000D+00
    1.145937646484D+04-1.247220993042D+00 0.000000000000D+00 4.000000000000D+00
   -1.338041894531D+04-2.944773674011D+00 1.862645149231D-09 0.000000000000D+00
 5 21  9 17  4 15  0.0 7.908418774605D-05 9.094947017729D-13 1.440000000000D+04
    6.842361328125D+03 7.813835144043D-02 0.000000000000D+00 0.000000000000D+00
    2.447820019531D+04-3.593378067017D-01 3.725290298462D-09 1.000000000000D+00
    2.323798828125D+03 3.560470581055D+00 1.862645149231D-09 0.000000000000D+00
